{"fetched_at":"2026-07-13T18:17:15.790Z","source":"https://celestrak.org/NORAD/elements/gp.php?NAME=SENTINEL&FORMAT=JSON","constellation":"sentinel-1","records":[{"OBJECT_NAME":"SENTINEL-1A","OBJECT_ID":"2014-016A","EPOCH":"2026-07-13T06:53:57.732864","CLASSIFICATION_TYPE":"U","MEAN_MOTION":14.59200969,"ECCENTRICITY":0.00014414,"INCLINATION":98.1783,"RA_OF_ASC_NODE":201.4393,"ARG_OF_PERICENTER":86.0983,"MEAN_ANOMALY":274.0381,"EPHEMERIS_TYPE":0,"NORAD_CAT_ID":39634,"ELEMENT_SET_NO":999,"REV_AT_EPOCH":65382,"BSTAR":0.000053526331,"MEAN_MOTION_DOT":0.00000207,"MEAN_MOTION_DDOT":0},{"OBJECT_NAME":"SENTINEL-1C","OBJECT_ID":"2024-235A","EPOCH":"2026-07-13T07:50:42.211680","CLASSIFICATION_TYPE":"U","MEAN_MOTION":14.59197002,"ECCENTRICITY":0.00012873,"INCLINATION":98.1825,"RA_OF_ASC_NODE":201.2638,"ARG_OF_PERICENTER":91.5321,"MEAN_ANOMALY":268.6026,"EPHEMERIS_TYPE":0,"NORAD_CAT_ID":62261,"ELEMENT_SET_NO":999,"REV_AT_EPOCH":8522,"BSTAR":-0.000027671447,"MEAN_MOTION_DOT":-0.00000176,"MEAN_MOTION_DDOT":0},{"OBJECT_NAME":"SENTINEL-1D","OBJECT_ID":"2025-251A","EPOCH":"2026-07-12T22:47:50.192736","CLASSIFICATION_TYPE":"U","MEAN_MOTION":14.59196948,"ECCENTRICITY":0.00013203,"INCLINATION":98.1839,"RA_OF_ASC_NODE":200.9471,"ARG_OF_PERICENTER":89.7026,"MEAN_ANOMALY":270.4325,"EPHEMERIS_TYPE":0,"NORAD_CAT_ID":66315,"ELEMENT_SET_NO":999,"REV_AT_EPOCH":3648,"BSTAR":-0.000039055881,"MEAN_MOTION_DOT":-0.0000023,"MEAN_MOTION_DDOT":0}]}
