SENTINEL-1A             
1 39634U 14016A   26194.28747376  .00000207  00000+0  53526-4 0  9996
2 39634  98.1783 201.4393 0001441  86.0983 274.0381 14.59200969653823
SENTINEL-1C             
1 62261U 24235A   26194.32687745 -.00000176  00000+0 -27671-4 0  9999
2 62261  98.1825 201.2638 0001287  91.5321 268.6026 14.59197002 85228
SENTINEL-1D             
1 66315U 25251A   26193.94988649 -.00000230  00000+0 -39056-4 0  9997
2 66315  98.1839 200.9471 0001320  89.7026 270.4325 14.59196948 36482
